KBCB 080915Z AUTO 28005KT 10SM CLR M09/M13 A3021 RMK AO2 T10901132
